$$SOE
2459580.500000000, A.D. 2022-Jan-01 00:00:00.0000, -2.923100601144286E+08, -3.969762595537579E+08, -5.190923258302832E+07,
2459587.500000000, A.D. 2022-Jan-08 00:00:00.0000, -2.841612743127923E+08, -4.023130509703552E+08, -5.273354488859630E+07,
2459594.500000000, A.D. 2022-Jan-15 00:00:00.0000, -2.758990378110238E+08, -4.074891579849381E+08, -5.353679443452483E+07,
2459601.500000000, A.D. 2022-Jan-22 00:00:00.0000, -2.675264095588751E+08, -4.125021651774697E+08, -5.431861488772491E+07,
2459608.500000000, A.D. 2022-Jan-29 00:00:00.0000, -2.590465025230087E+08, -4.173497052643990E+08, -5.507864624541190E+07,
2459615.500000000, A.D. 2022-Feb-05 00:00:00.0000, -2.504624853427003E+08, -4.220294610148673E+08, -5.581653486520445E+07,
2459622.500000000, A.D. 2022-Feb-12 00:00:00.0000, -2.417775817828148E+08, -4.265391682442621E+08, -5.653193378182948E+07,
2459629.500000000, A.D. 2022-Feb-19 00:00:00.0000, -2.329950693085873E+08, -4.308766175161442E+08, -5.722450299549237E+07,
2459636.500000000, A.D. 2022-Feb-26 00:00:00.0000, -2.241182780929016E+08, -4.350396552747675E+08, -5.789390967079061E+07,
2459643.500000000, A.D. 2022-Mar-05 00:00:00.0000, -2.151505902957594E+08, -4.390261850241513E+08, -5.853982831132004E+07,
2459650.500000000, A.D. 2022-Mar-12 00:00:00.0000, -2.060954393929693E+08, -4.428341686186583E+08, -5.916194093592197E+07,
2459657.500000000, A.D. 2022-Mar-19 00:00:00.0000, -1.969563094820308E+08, -4.464616276365043E+08, -5.975993726113030E+07,
2459664.500000000, A.D. 2022-Mar-26 00:00:00.0000, -1.877367345422740E+08, -4.499066448415335E+08, -6.033351489267114E+07,
2459671.500000000, A.D. 2022-Apr-02 00:00:00.0000, -1.784402975811547E+08, -4.531673657879199E+08, -6.088237953693128E+07,
2459678.500000000, A.D. 2022-Apr-09 00:00:00.0000, -1.690706293941118E+08, -4.562420005610532E+08, -6.140624525682905E+07,
2459685.500000000, A.D. 2022-Apr-16 00:00:00.0000, -1.596314065797012E+08, -4.591288249982461E+08, -6.190483475109443E+07,
2459692.500000000, A.D. 2022-Apr-23 00:00:00.0000, -1.501263500770571E+08, -4.618261803027152E+08, -6.237787945162618E+07,
2459699.500000000, A.D. 2022-Apr-30 00:00:00.0000, -1.405592260934479E+08, -4.643324732944263E+08, -6.282511945072180E+07,
2459706.500000000, A.D. 2022-May-07 00:00:00.0000, -1.309338463571841E+08, -4.666461792714055E+08, -6.324630370069095E+07,
2459713.500000000, A.D. 2022-May-14 00:00:00.0000, -1.212540663060763E+08, -4.687658444444283E+08, -6.364119036552706E+07,
2459720.500000000, A.D. 2022-May-21 00:00:00.0000, -1.115237832430698E+08, -4.706900871864022E+08, -6.400954707654446E+07,
2459727.500000000, A.D. 2022-May-28 00:00:00.0000, -1.017469349383093E+08, -4.724175990538232E+08, -6.435115112625173E+07,
2459734.500000000, A.D. 2022-Jun-04 00:00:00.0000, -9.192749840047881E+07, -4.739471458908449E+08, -6.466578965102205E+07,
2459741.500000000, A.D. 2022-Jun-11 00:00:00.0000, -8.206948867206059E+07, -4.752775690110573E+08, -6.495325981510398E+07,
2459748.500000000, A.D. 2022-Jun-18 00:00:00.0000, -7.217695760859549E+07, -4.764077864411080E+08, -6.521336899790868E+07,
2459755.500000000, A.D. 2022-Jun-25 00:00:00.0000, -6.225399261111976E+07, -4.773367942572685E+08, -6.544593498956040E+07,
2459762.500000000, A.D. 2022-Jul-02 00:00:00.0000, -5.230471517655131E+07, -4.780636680790802E+08, -6.565078621204680E+07,
2459769.500000000, A.D. 2022-Jul-09 00:00:00.0000, -4.233327887489876E+07, -4.785875645417668E+08, -6.582776198701316E+07,
2459776.500000000, A.D. 2022-Jul-16 00:00:00.0000, -3.234386680797425E+07, -4.789077216632417E+08, -6.597671275634986E+07,
2459783.500000000, A.D. 2022-Jul-23 00:00:00.0000, -2.234069074772152E+07, -4.790234580260656E+08, -6.609750004715356E+07,
2459790.500000000, A.D. 2022-Jul-30 00:00:00.0000, -1.232799186940813E+07, -4.789341741258830E+08, -6.618999646239167E+07,
2459797.500000000, A.D. 2022-Aug-06 00:00:00.0000, -2.310039480107089E+06, -4.786393552367764E+08, -6.625408597412738E+07,
2459804.500000000, A.D. 2022-Aug-13 00:00:00.0000, 7.708871434472489E+06, -4.781385730382730E+08, -6.628966421844324E+07,
2459811.500000000, A.D. 2022-Aug-20 00:00:00.0000, 1.772442227519070E+07, -4.774314865058854E+08, -6.629663868880847E+07,
2459818.500000000, A.D. 2022-Aug-27 00:00:00.0000, 2.773227257462514E+07, -4.765178427896795E+08, -6.627492889296228E+07,
2459825.500000000, A.D. 2022-Sep-03 00:00:00.0000, 3.772806166988900E+07, -4.753974781890607E+08, -6.622446650452965E+07,
2459832.500000000, A.D. 2022-Sep-10 00:00:00.0000, 4.770741039310714E+07, -4.740703191972853E+08, -6.614519551514414E+07,
2459839.500000000, A.D. 2022-Sep-17 00:00:00.0000, 5.766592280908377E+07, -4.725363836148435E+08, -6.603707238949540E+07,
2459846.500000000, A.D. 2022-Sep-24 00:00:00.0000, 6.759918806086411E+07, -4.707957817803748E+08, -6.590006623275828E+07,
2459853.500000000, A.D. 2022-Oct-01 00:00:00.0000, 7.750278256325854E+07, -4.688487179396983E+08, -6.573415899415776E+07,
2459860.500000000, A.D. 2022-Oct-08 00:00:00.0000, 8.737227295127365E+07, -4.666954912293975E+08, -6.553934570134664E+07,
2459867.500000000, A.D. 2022-Oct-15 00:00:00.0000, 9.720321885079755E+07, -4.643364950739781E+08, -6.531563454206175E+07,
2459874.500000000, A.D. 2022-Oct-22 00:00:00.0000, 1.069911732889642E+08, -4.617722166776402E+08, -6.506304673035902E+07,
2459881.500000000, A.D. 2022-Oct-29 00:00:00.0000, 1.167316832416748E+08, -4.590032392008464E+08, -6.478161659833261E+07,
2459888.500000000, A.D. 2022-Nov-05 00:00:00.0000, 1.264202924176942E+08, -4.560302438785818E+08, -6.447139188198286E+07,
2459895.500000000, A.D. 2022-Nov-12 00:00:00.0000, 1.360525443140016E+08, -4.528540108118319E+08, -6.413243391758022E+07,
2459902.500000000, A.D. 2022-Nov-19 00:00:00.0000, 1.456239848220234E+08, -4.494754193848432E+08, -6.376481776050439E+07,
2459909.500000000, A.D. 2022-Nov-26 00:00:00.0000, 1.551301646456364E+08, -4.458954487037187E+08, -6.336863228295615E+07,
2459916.500000000, A.D. 2022-Dec-03 00:00:00.0000, 1.645666416951467E+08, -4.421151780658759E+08, -6.294398026643983E+07,
2459923.500000000, A.D. 2022-Dec-10 00:00:00.0000, 1.739289835004023E+08, -4.381357874390469E+08, -6.249097849116424E+07,
2459930.500000000, A.D. 2022-Dec-17 00:00:00.0000, 1.832127696653052E+08, -4.339585579712382E+08, -6.200975782595932E+07,
2459937.500000000, A.D. 2022-Dec-24 00:00:00.0000, 1.924135944713321E+08, -4.295848725934064E+08, -6.150046333338964E+07,
2459944.500000000, A.D. 2022-Dec-31 00:00:00.0000, 2.015270699869061E+08, -4.250162166038923E+08, -6.096325441357988E+07,
2459951.500000000, A.D. 2023-Jan-07 00:00:00.0000, 2.105488298049789E+08, -4.202541772702621E+08, -6.039830491918966E+07,
2459958.500000000, A.D. 2023-Jan-14 00:00:00.0000, 2.194745314407804E+08, -4.153004419507848E+08, -5.980580302048439E+07,
2459965.500000000, A.D. 2023-Jan-21 00:00:00.0000, 2.282998567429675E+08, -4.101567979066873E+08, -5.918595102048671E+07,
2459972.500000000, A.D. 2023-Jan-28 00:00:00.0000, 2.370205139841341E+08, -4.048251339988199E+08, -5.853896547240710E+07,
2459979.500000000, A.D. 2023-Feb-04 00:00:00.0000, 2.456322414201562E+08, -3.993074412399884E+08, -5.786507733259779E+07,
2459986.500000000, A.D. 2023-Feb-11 00:00:00.0000, 2.541308105205423E+08, -3.936058123954535E+08, -5.716453199982449E+07,
2459993.500000000, A.D. 2023-Feb-18 00:00:00.0000, 2.625120288036437E+08, -3.877224414529475E+08, -5.643758930183411E+07,
2460000.500000000, A.D. 2023-Feb-25 00:00:00.0000, 2.707717425367042E+08, -3.816596231218727E+08, -5.568452346602060E+07,
2460007.500000000, A.D. 2023-Mar-04 00:00:00.0000, 2.789058394001207E+08, -3.754197523407782E+08, -5.490562308151364E+07,
2460014.500000000, A.D. 2023-Mar-11 00:00:00.0000, 2.869102511415149E+08, -3.690053237905043E+08, -5.410119105474919E+07,
2460021.500000000, A.D. 2023-Mar-18 00:00:00.0000, 2.947809562635069E+08, -3.624189314601421E+08, -5.327154456634064E+07,
2460028.500000000, A.D. 2023-Mar-25 00:00:00.0000, 3.025139829456590E+08, -3.556632683105969E+08, -5.241701505126251E+07,
2460035.500000000, A.D. 2023-Apr-01 00:00:00.0000, 3.101054126229067E+08, -3.487411256406797E+08, -5.153794820877713E+07,
2460042.500000000, A.D. 2023-Apr-08 00:00:00.0000, 3.175513836028423E+08, -3.416553909304408E+08, -5.063470388530549E+07,
2460049.500000000, A.D. 2023-Apr-15 00:00:00.0000, 3.248480923812588E+08, -3.344090452677748E+08, -4.970765570596339E+07,
2460056.500000000, A.D. 2023-Apr-22 00:00:00.0000, 3.319917944605407E+08, -3.270051634085855E+08, -4.875719086969450E+07,
2460063.500000000, A.D. 2023-Apr-29 00:00:00.0000, 3.389788074022840E+08, -3.194469142156565E+08, -4.778371017450577E+07,
2460070.500000000, A.D. 2023-May-06 00:00:00.0000, 3.458055143510321E+08, -3.117375596944349E+08, -4.678762796577610E+07,
2460077.500000000, A.D. 2023-May-13 00:00:00.0000, 3.524683670490742E+08, -3.038804535191591E+08, -4.576937199113829E+07,
2460084.500000000, A.D. 2023-May-20 00:00:00.0000, 3.589638885728283E+08, -2.958790395402679E+08, -4.472938322366557E+07,
2460091.500000000, A.D. 2023-May-27 00:00:00.0000, 3.652886759806030E+08, -2.877368503024469E+08, -4.366811567371145E+07,
2460098.500000000, A.D. 2023-Jun-03 00:00:00.0000, 3.714394029255620E+08, -2.794575055474920E+08, -4.258603619281404E+07,
2460105.500000000, A.D. 2023-Jun-10 00:00:00.0000, 3.774128222536567E+08, -2.710447107161025E+08, -4.148362427325405E+07,
2460112.500000000, A.D. 2023-Jun-17 00:00:00.0000, 3.832057686711465E+08, -2.625022555089115E+08, -4.036137185661940E+07,
2460119.500000000, A.D. 2023-Jun-24 00:00:00.0000, 3.888151617974194E+08, -2.538340124508783E+08, -3.921978317645024E+07,
2460126.500000000, A.D. 2023-Jul-01 00:00:00.0000, 3.942380098532225E+08, -2.450439346310176E+08, -3.805937459083723E+07,
2460133.500000000, A.D. 2023-Jul-08 00:00:00.0000, 3.994714123081746E+08, -2.361360517972243E+08, -3.688067418465425E+07,
2460140.500000000, A.D. 2023-Jul-15 00:00:00.0000, 4.045125602071794E+08, -2.271144676385064E+08, -3.568422125589889E+07,
$$EOE